HAWK-A                  
1 43765U 18099H   26189.93901917  .00004252  00000+0  17107-3 0  9998
2 43765  97.3904 241.8930 0034071 206.1617 153.7901 15.24910778416410
HAWK-B                  
1 43794U 18099AN  26189.65812226  .00003703  00000+0  15822-3 0  9995
2 43794  97.3950 240.9855 0030798 225.5796 134.2919 15.23065911416304
HAWK-C                  
1 43799U 18099AT  26189.73507879  .00005393  00000+0  19321-3 0  9999
2 43799  97.3881 242.7106 0039672 206.8217 153.0972 15.28422450417209
HAWK-2C                 
1 47502U 21006CT  26189.66755212  .00004684  00000+0  14042-3 0  9992
2 47502  97.2272 233.5505 0008518 119.6231 240.5862 15.34933789302797
HAWK-2A                 
1 47505U 21006CW  26189.60464882  .00004854  00000+0  14539-3 0  9999
2 47505  97.2311 234.1791 0007994 122.8132 237.3883 15.34947929302788
HAWK-2B                 
1 47508U 21006CZ  26189.66390563  .00005350  00000+0  15934-3 0  9994
2 47508  97.2183 232.5348 0008586 121.2729 238.9357 15.35073286302792
HAWK-3B                 
1 48931U 21059BE  26189.54222878  .00038704  00000+0  30419-3 0  9997
2 48931  97.6652  28.2983 0003906 224.4609 135.6340 15.71414468281205
HAWK-3C                 
1 48948U 21059BX  26189.54192624  .00038991  00000+0  30651-3 0  9996
2 48948  97.6771  34.0207 0004226 223.2923 136.8007 15.71407356281202
HAWK-3A                 
1 48957U 21059CG  26189.54181301  .00041263  00000+0  32419-3 0  9996
2 48957  97.6713  31.2077 0004069 227.6759 132.4159 15.71409877281202
HAWK-5C                 
1 52754U 22057Y   26189.38867536  .00012425  00000+0  20705-3 0  9991
2 52754  97.6616 350.4379 0003473  12.0616 348.0718 15.52151684229635
HAWK-5B                 
1 52756U 22057AA  26189.90422792  .00012939  00000+0  21538-3 0  9997
2 52756  97.6630 349.3394 0004055 357.5787   2.5444 15.52169831229710
HAWK-5A                 
1 52757U 22057AB  26189.90403340  .00012876  00000+0  21435-3 0  9992
2 52757  97.6624 350.1701 0003956   2.8161 357.3112 15.52169718229718
HAWK-6B                 
1 55324U 23011A   26189.55961022  .00002509  00000+0  11224-3 0  9990
2 55324  40.4969 227.3973 0003187 204.0869 155.9792 15.23115098191109
HAWK-6C                 
1 55326U 23011C   26189.55898823  .00002808  00000+0  12466-3 0  9991
2 55326  40.4958 224.2363 0003601 192.3614 167.7107 15.23116126191111
HAWK-6A                 
1 55327U 23011D   26189.55902097  .00002774  00000+0  12323-3 0  9995
2 55327  40.4967 225.8631 0003138 190.2605 169.8140 15.23117158191115
HAWK-7A                 
1 56191U 23054P   26189.92518417  .00003532  00000+0  13363-3 0  9990
2 56191  97.2676  76.7099 0002128   1.2836 358.8408 15.27588795180341
